259P/Garradd,e,15.8936,51.4320,257.6158,2.730660,0.2184251,0.33888792,45.5812,09/05.0/2022,2000,g 15.5,4.0
# From MPEC 2022-O01
260P/McNaught,e,15.0580,349.3381,18.4342,3.623209,0.1429105,0.60935267,155.8241,09/05.0/2022,2000,g 13.5,4.0
# From MPEC 2021-J28
261P/Larson,e,6.0727,291.1271,67.2348,3.490464,0.1511400,0.42335575,177.3555,09/05.0/2022,2000,g 14.0,4.0
# From MPC 82322
262P/McNaught-Russell,e,29.2777,217.8660,171.0460,6.872170,0.0547096,0.81621479,194.8321,09/05.0/2022,2000,g 13.5,4.0
# From MPC 89018
263P/Gibbs,e,11.5217,105.5123,35.0310,3.041935,0.1857715,0.59355302,332.5850,09/05.0/2022,2000,g  9.0,4.0
# From MPC114608
264P/Larsen,e,25.3140,220.2735,346.7158,3.886352,0.1286444,0.37603042,145.1081,09/05.0/2022,2000,g 13.0,4.0
# From MPC 79870
265P/LINEAR,e,14.3642,342.9265,33.4714,4.255530,0.1122725,0.64762190,64.3149,09/05.0/2022,2000,g 14.5,4.0
# From MPEC 2021-F20
266P/Christensen,e,3.4270,4.9967,97.6870,3.531967,0.1484838,0.33975862,128.9950,09/05.0/2022,2000,g 14.7,4.0
# From MPC114608
267P/LONEOS,e,6.1425,228.5745,114.2245,3.210988,0.1712956,0.61440839,257.6184,09/05.0/2022,2000,g 19.5,4.0
# From MPC 92277
268P/Bernardi,e,15.7916,126.7268,359.8037,4.571343,0.1008413,0.47759668,275.6492,09/05.0/2022,2000,g 14.0,4.0
# From MPC104795
269P/Jedicke,e,7.0792,241.7375,225.7231,7.070331,0.0524257,0.43126975,151.9072,09/05.0/2022,2000,g 10.0,4.0
# From MPC 88332
270P/Gehrels,e,2.9234,223.0212,209.7668,6.660154,0.0573426,0.46869163,193.4819,09/05.0/2022,2000,g  8.0,4.0
# From MPC 92277
271P/van Houten-Lemmon,e,6.8723,9.3186,36.3978,7.037455,0.0527935,0.39544232,176.1817,09/05.0/2022,2000,g 11.0,4.0
# From MPEC 2022-C56
272P/NEAT,e,18.0735,109.4688,27.8943,4.460848,0.1046111,0.45477052,5.2264,09/05.0/2022,2000,g 16.0,2.0
# From MPC 82723
273P/Pons-Gambart,e,136.7316,320.3974,20.3157,31.95354,0.0054566,0.97429201,0.0000,12/20.8107/2012,2000,g 11.5,4.0
# From MPEC 2022-M21
274P/Tombaugh-Tenagra,e,15.8151,81.3354,38.4695,4.376543,0.1076483,0.43948208,16.0979,09/05.0/2022,2000,g 13.0,4.0
# From MPC 81862
275P/Hermann,e,21.2748,348.7571,173.9833,5.777206,0.0709786,0.71276274,252.3282,09/05.0/2022,2000,g 17.0,4.0
# From MPEC 2022-R68
276P/Vorobjov,e,14.8104,211.3563,199.5255,5.323787,0.0802367,0.26779035,293.3839,09/05.0/2022,2000,g 11.5,4.0
# From MPEC 2021-F20
277P/LINEAR,e,16.7775,276.3180,152.3231,3.853445,0.1302958,0.50603475,79.9649,09/05.0/2022,2000,g 15.1,4.0
# From MPEC 2021-S45
278P/McNaught,e,6.6969,15.3839,237.7138,3.685482,0.1393037,0.43634104,100.7762,09/05.0/2022,2000,g 14.0,4.0
# From MPEC 2022-K19
279P/LaSagra,e,5.0525,346.2320,5.8620,3.572732,0.1459498,0.39873244,326.9277,09/05.0/2022,2000,g 14.0,4.0
# From MPEC 2022-K19
280P/Larsen,e,11.7731,131.3918,104.7421,4.530152,0.1022198,0.41727382,325.8882,09/05.0/2022,2000,g 12.5,4.0
# From MPEC 2021-W31
281P/MOSS,e,4.7186,87.1805,26.6525,4.876108,0.0915365,0.17260037,346.3093,09/05.0/2022,2000,g 11.0,4.0
# From MPC133426
282P/,e,5.8117,9.2974,217.6225,4.238808,0.1129376,0.18819718,35.6253,09/05.0/2022,2000,g 13.5,2.0
# From MPEC 2022-K19
283P/Spacewatch,e,14.4553,161.1288,22.2261,4.136271,0.1171630,0.48453597,42.4210,09/05.0/2022,2000,g 16.0,2.0
# From MPEC 2022-K19
284P/McNaught,e,11.8613,144.2612,202.4173,3.675965,0.1398450,0.37545029,49.9845,09/05.0/2022,2000,g 13.0,4.0
# From MPEC 2022-R68
285P/LINEAR,e,25.0377,185.5076,178.4319,4.508435,0.1029592,0.61865529,346.6885,09/05.0/2022,2000,g 15.0,4.0
# From MPEC 2022-R68
286P/Christensen,e,17.0408,283.9442,24.8737,4.112812,0.1181669,0.42594288,13.6286,09/05.0/2022,2000,g 14.0,4.0
# From MPEC 2022-QD9
287P/Christensen,e,16.3211,139.0442,189.0747,4.163911,0.1159984,0.27121235,324.7527,09/05.0/2022,2000,g 13.5,4.0
# From MPC133426
288P/,e,3.2383,83.1239,280.2172,3.048689,0.1851545,0.20068160,34.6759,09/05.0/2022,2000,g 16.0,2.0
# From MPEC 2022-K19
289P/Blanpain,e,5.8980,68.8842,9.8406,3.045777,0.1854202,0.68586447,183.3615,09/05.0/2022,2000,g 19.0,4.0
# From MPC 95214
290P/Jager,e,20.0494,302.6746,181.8644,6.216288,0.0635927,0.62737927,200.0461,09/05.0/2022,2000,g 10.5,4.0
# From MPEC 2022-R68
291P/NEAT,e,6.3012,237.7314,173.5432,4.543626,0.1017654,0.43567701,335.4398,09/05.0/2022,2000,g 13.0,4.0
# From MPEC 2022-K19
292P/Li,e,24.2842,90.9375,319.5059,6.103155,0.0653691,0.58934954,205.0179,09/05.0/2022,2000,g 12.5,4.0
# From MPEC 2022-L66
293P/Spacewatch,e,9.0588,78.3983,40.9739,3.641534,0.1418331,0.41832401,88.6303,09/05.0/2022,2000,g 14.5,4.0
# From MPEC 2020-SI8
294P/LINEAR,e,17.9466,311.7129,235.8358,3.187346,0.1732049,0.60292193,174.3024,09/05.0/2022,2000,g 15.5,4.0
# From MPEC 2022-K19
295P/LINEAR,e,21.0740,7.4392,72.8759,5.305506,0.0806518,0.61683159,245.6738,09/05.0/2022,2000,g 12.0,4.0
# From MPEC 2021-N06
296P/Garradd,e,25.2387,263.5676,350.0190,3.493056,0.1509718,0.47875461,108.3135,09/05.0/2022,2000,g 14.0,4.0
# From MPC102956
297P/Beshore,e,10.2988,97.3352,133.4211,3.456747,0.1533567,0.32074037,90.1448,09/05.0/2022,2000,g 15.0,4.0
# From MPC114609
298P/Christensen,e,7.8707,52.8216,100.6417,3.590410,0.1448732,0.38629290,105.6096,09/05.0/2022,2000,g 15.0,4.0
# From MPEC 2022-CN4
299P/Catalina-PANSTARRS,e,10.4686,271.6109,323.7962,4.387515,0.1072448,0.28097550,295.2299,09/05.0/2022,2000,g 11.5,4.0
# From MPEC 2022-ED3
300P/Catalina,e,5.6739,95.6292,222.9410,2.699187,0.2222566,0.69172195,311.5251,09/05.0/2022,2000,g 16.0,4.0
# From MPC 89014
301P/LINEAR-NEAT,e,10.3395,351.1743,193.5955,5.740074,0.0716684,0.58528402,210.3786,09/05.0/2022,2000,g 13.0,4.0
# From MPEC 2022-K19
302P/Lemmon-PANSTARRS,e,6.0335,121.7401,208.4236,4.273818,0.1115527,0.23030235,257.9063,09/05.0/2022,2000,g 12.5,4.0
# From MPC 92278
303P/NEAT,e,7.0211,347.9701,356.9598,5.044570,0.0869897,0.51092937,250.1276,09/05.0/2022,2000,g 13.5,4.0
# From MPEC 2022-K19
304P/Ory,e,2.6072,58.9113,335.2543,3.150737,0.1762324,0.60085264,132.7451,09/05.0/2022,2000,g 16.5,4.0
# From MPC101100
305P/Skiff,e,11.6643,240.1021,147.3500,4.641166,0.0985742,0.69388335,280.7350,09/05.0/2022,2000,g 18.0,4.0
# From MPC 92278
306P/LINEAR,e,8.3104,341.3738,0.8772,3.123952,0.1785038,0.59324023,170.6199,09/05.0/2022,2000,g 19.0,4.0
# From MPC 92278
307P/LINEAR,e,4.4356,158.1683,222.1456,5.790182,0.0707401,0.67543891,198.8812,09/05.0/2022,2000,g 15.0,4.0
# From MPEC 2022-C56
308P/Lagerkvist-Carsenty,e,4.8537,63.0481,333.6355,6.600399,0.0581231,0.36440250,155.4860,09/05.0/2022,2000,g 13.0,2.0
# From MPC 94284
309P/LINEAR,e,17.0237,10.1467,49.9396,4.372749,0.1077884,0.61809294,298.4357,09/05.0/2022,2000,g 15.0,4.0
# From MPEC 2022-QD9
310P/Hill,e,13.1279,8.9207,31.7633,4.181199,0.1152797,0.42226186,312.2501,09/05.0/2022,2000,g 13.5,4.0
# From MPEC 2021-BE3
311P/PANSTARRS,e,4.9700,279.2125,144.5219,2.188179,0.3044948,0.11584796,212.4045,09/05.0/2022,2000,g 17.0,4.0
# From MPEC 2021-BE3
312P/NEAT,e,19.7662,144.6710,207.6311,3.468979,0.1525462,0.42781338,108.2780,09/05.0/2022,2000,g 16.0,4.0
# From MPEC 2021-S45
313P/Gibbs,e,10.9796,105.9630,254.8191,3.163837,0.1751390,0.23501328,152.7261,09/05.0/2022,2000,g 15.0,4.0
# From MPC105243
314P/Montani,e,3.9844,267.6060,213.9673,7.260217,0.0503825,0.41649248,108.7573,09/05.0/2022,2000,g  9.5,4.0
# From MPEC 2021-N06
315P/LONEOS,e,17.7382,68.7960,65.7336,4.940073,0.0897644,0.52095348,189.3778,09/05.0/2022,2000,g 11.0,4.0
# From MPC 92279
316P/LONEOS-Christensen,e,9.8247,246.3533,192.1851,4.378988,0.1075582,0.15588705,274.0890,09/05.0/2022,2000,g 13.5,4.0
# From MPEC 2020-C98
317P/WISE,e,11.9520,275.4882,334.8455,2.962702,0.1932734,0.57050808,137.0355,09/05.0/2022,2000,g 17.5,4.0
# From MPC102103
318P/McNaught-Hartley,e,17.8868,35.5176,313.2987,7.503052,0.0479565,0.67521684,120.1744,09/05.0/2022,2000,g  8.5,6.0
# From MPC 97499
319P/Catalina-McNaught,e,15.0948,111.3642,203.6714,3.566282,0.1463459,0.66663479,23.0611,09/05.0/2022,2000,g 15.0,4.0
# From MPC 96281
320P/McNaught,e,4.9069,295.9425,0.7852,3.094050,0.1810978,0.68540890,107.9310,09/05.0/2022,2000,g 20.5,4.0
# From MPC105243
321P/SOHO,e,20.0914,165.0174,172.7488,2.423322,0.2612688,0.98110121,0.0000,10/26.5674/2023,2000,g 20.0,4.0
# From MPC102103
322P/SOHO,e,11.4674,351.5231,56.8834,2.507751,0.2481862,0.97994680,0.0000,08/21.0823/2023,2000,g 19.0,4.0
# From MPEC 2016-Y36
323P/SOHO,e,5.3286,324.3952,353.0444,2.583207,0.2373915,0.98479296,0.0000,01/17.8320/2021,2000,g 20.0,4.0
# From MPEC 2021-W31
324P/LaSagra,e,21.4042,270.5850,57.5349,3.094466,0.1810612,0.15378855,88.3281,09/05.0/2022,2000,g 13.0,4.0
# From MPEC 2022-R68
325P/Yang-Gao,e,16.6937,257.5559,343.7188,3.523160,0.1490409,0.59339657,23.8161,09/05.0/2022,2000,g 14.0,4.0
# From MPC103849
326P/Hill,e,2.4711,99.8088,278.6455,4.062517,0.1203681,0.31818379,302.0378,09/05.0/2022,2000,g 13.5,4.0
# From MPEC 2022-R68
327P/VanNess,e,36.2501,173.9848,185.0266,3.563590,0.1465118,0.56334065,0.3831,09/05.0/2022,2000,g 16.0,4.0
# From MPC109148
328P/LONEOS-Tucker,e,17.6727,341.6315,30.5533,4.191785,0.1148433,0.55266832,280.5420,09/05.0/2022,2000,g 14.5,4.0
# From MPC101101
329P/LINEAR-Catalina,e,21.6967,87.6587,343.5369,5.188959,0.0833842,0.67796009,205.9786,09/05.0/2022,2000,g 13.5,4.0
# From MPEC 2022-K19
330P/Catalina,e,15.7047,293.0856,188.8721,6.623392,0.0578207,0.54863632,127.2920,09/05.0/2022,2000,g 12.0,4.0
# From MPEC 2022-C56
331P/Gibbs,e,9.7388,216.7542,184.3984,3.005277,0.1891809,0.04121745,132.8353,09/05.0/2022,2000,g 12.0,4.0
# From MPEC 2016-K18
332P/Ikeya-Murakami,e,9.3801,3.7860,152.3122,3.088055,0.1816254,0.48933577,69.4986,09/05.0/2022,2000,g 18.0,4.0
# From MPEC 2016-EI8
332P-B/Ikeya-Murakami,e,9.3805,3.8028,152.3711,3.082329,0.1821317,0.48970701,359.9699,03/17.0/2016,2000,g 19.0,4.0
# From MPEC 2016-K18
332P-C/Ikeya-Murakami,e,9.3791,3.7864,152.3035,3.088021,0.1816284,0.48934125,69.5139,09/05.0/2022,2000,g 16.5,4.0
# From MPEC 2016-ED0
332P-D/Ikeya-Murakami,e,9.3761,3.7923,152.4393,3.081138,0.1822373,0.48977814,359.9486,03/17.0/2016,2000,g 19.0,4.0
# From MPEC 2016-ED0
332P-E/Ikeya-Murakami,e,9.3774,3.8228,152.2825,3.079877,0.1823493,0.48922008,359.9889,03/17.0/2016,2000,g 21.0,4.0
